[{"OBJECT_NAME":"STARLINK-1591","OBJECT_ID":"2020-055U","EPOCH":"2026-03-10T00:00:02.999808","MEAN_MOTION":15.18497861,"ECCENTRICITY":3.326e-5,"INCLINATION":53.1044,"RA_OF_ASC_NODE":124.8093,"ARG_OF_PERICENTER":103.7008,"MEAN_ANOMALY":218.0512,"EPHEMERIS_TYPE":0,"CLASSIFICATION_TYPE":"U","NORAD_CAT_ID":46045,"ELEMENT_SET_NO":999,"REV_AT_EPOCH":579,"BSTAR":0.0057904655,"MEAN_MOTION_DOT":0.00122649,"MEAN_MOTION_DDOT":0},{"OBJECT_NAME":"AEROCUBE 18A","OBJECT_ID":"2025-052L","EPOCH":"2026-03-09T22:34:41.135232","MEAN_MOTION":15.23215068,"ECCENTRICITY":0.00058387,"INCLINATION":97.4079,"RA_OF_ASC_NODE":323.7178,"ARG_OF_PERICENTER":105.4164,"MEAN_ANOMALY":254.7718,"EPHEMERIS_TYPE":0,"CLASSIFICATION_TYPE":"U","NORAD_CAT_ID":63220,"ELEMENT_SET_NO":999,"REV_AT_EPOCH":5478,"BSTAR":0.00035659101,"MEAN_MOTION_DOT":8.374e-5,"MEAN_MOTION_DDOT":0}]
